ALOS (DAICHI)           
1 28931U 06002A   25351.73419158  .00001110  00000+0  19545-3 0  9994
2 28931  98.1098 303.1864 0001361 113.5739 246.5610 14.69501788 61443
H-2A R/B                
1 28932U 06002B   25357.88380305  .00009611  00000+0  50269-3 0  9990
2 28932  98.2324 133.5443 0054784 138.7467 221.7923 15.14781981 82956
RESURS-DK 1             
1 29228U 06021A   25358.20784187  .00002923  00000+0  17492-3 0  9993
2 29228  69.9336  72.1999 0006884 248.5940 111.4492 15.12222014 76113
CZ-4B R/B               
1 29507U 06046C   25358.12255289  .00005590  00000+0  29051-3 0  9994
2 29507  97.5717  38.2298 0034272 166.9203 193.2927 15.15980573 48591
CZ-2C R/B               
1 31114U 07010B   25358.27292392  .00000147  00000+0  86249-4 0  9991
2 31114  98.3975 110.3434 0059586 152.5893 207.8450 14.20214211969014
COSMO-SKYMED 1          
1 31598U 07023A   25358.29408486  .00003278  00000+0  29870-3 0  9990
2 31598  97.8840 183.7697 0001337  78.5430 281.5941 14.95849840  3630
COSMOS 2428             
1 31792U 07029A   25358.27840103  .00000202  00000+0  13403-3 0  9995
2 31792  70.9367   1.6529 0004320   7.4712 352.6472 14.12894421953449
SL-16 R/B               
1 31793U 07029B   25358.27792662  .00000288  00000+0  17420-3 0  9999
2 31793  70.9763 330.9028 0001878 264.3464 211.7338 14.14818260954700
KORONAS-FOTON           
1 33504U 09003A   25358.05087019  .00009263  00000+0  22010-3 0  9997
2 33504  82.4310 354.3824 0013342  73.3551 286.9159 15.41409947934089
CZ-2C R/B               
1 37731U 11030B   25358.13808493  .00001322  00000+0  17405-3 0  9992
2 37731  97.8431 311.9935 0051503 235.4703 134.6108 14.80935145778919
H-2A R/B                
1 38341U 12025E   25358.15575515  .00003341  00000+0  30969-3 0  9996
2 38341  98.4611 314.2669 0044524 198.0836 161.8801 14.94512951736939
SHIJIAN-16 (SJ-16)      
1 39358U 13057A   25358.33681940  .00001160  00000+0  11697-3 0  9995
2 39358  74.9736 327.7107 0017898 292.8583  67.0714 14.92012156660269
