CCSDS_OMM_VERS = 2.0
CREATION_DATE  = 
ORIGINATOR     = 

OBJECT_NAME    = ALOS (DAICHI)
OBJECT_ID      = 2006-002A
CENTER_NAME    = EARTH
REF_FRAME      = TEME
TIME_SYSTEM    = UTC
MEAN_ELEMENT_THEORY = SGP/SGP4

EPOCH          = 2025-12-17T17:37:14.152512
MEAN_MOTION    = 14.69501788
ECCENTRICITY   = .00013612
INCLINATION    = 98.1098
RA_OF_ASC_NODE = 303.1864
ARG_OF_PERICENTER = 113.5739
MEAN_ANOMALY   = 246.5610

EPHEMERIS_TYPE = 0
CLASSIFICATION_TYPE = U
NORAD_CAT_ID   = 28931
ELEMENT_SET_NO = 999
REV_AT_EPOCH   = 6144
BSTAR          = .19545051E-3
MEAN_MOTION_DOT = .111E-4
MEAN_MOTION_DDOT = 0

CCSDS_OMM_VERS = 2.0
CREATION_DATE  = 
ORIGINATOR     = 

OBJECT_NAME    = H-2A R/B
OBJECT_ID      = 2006-002B
CENTER_NAME    = EARTH
REF_FRAME      = TEME
TIME_SYSTEM    = UTC
MEAN_ELEMENT_THEORY = SGP/SGP4

EPOCH          = 2025-12-23T21:12:40.583520
MEAN_MOTION    = 15.14781981
ECCENTRICITY   = .00547841
INCLINATION    = 98.2324
RA_OF_ASC_NODE = 133.5443
ARG_OF_PERICENTER = 138.7467
MEAN_ANOMALY   = 221.7923

EPHEMERIS_TYPE = 0
CLASSIFICATION_TYPE = U
NORAD_CAT_ID   = 28932
ELEMENT_SET_NO = 999
REV_AT_EPOCH   = 8295
BSTAR          = .50269108E-3
MEAN_MOTION_DOT = .9611E-4
MEAN_MOTION_DDOT = 0

CCSDS_OMM_VERS = 2.0
CREATION_DATE  = 
ORIGINATOR     = 

OBJECT_NAME    = RESURS-DK 1
OBJECT_ID      = 2006-021A
CENTER_NAME    = EARTH
REF_FRAME      = TEME
TIME_SYSTEM    = UTC
MEAN_ELEMENT_THEORY = SGP/SGP4

EPOCH          = 2025-12-24T04:59:17.537568
MEAN_MOTION    = 15.12222014
ECCENTRICITY   = .00068848
INCLINATION    = 69.9336
RA_OF_ASC_NODE = 72.1999
ARG_OF_PERICENTER = 248.5940
MEAN_ANOMALY   = 111.4492

EPHEMERIS_TYPE = 0
CLASSIFICATION_TYPE = U
NORAD_CAT_ID   = 29228
ELEMENT_SET_NO = 999
REV_AT_EPOCH   = 7611
BSTAR          = .17491862E-3
MEAN_MOTION_DOT = .2923E-4
MEAN_MOTION_DDOT = 0

CCSDS_OMM_VERS = 2.0
CREATION_DATE  = 
ORIGINATOR     = 

OBJECT_NAME    = CZ-4B R/B
OBJECT_ID      = 2006-046C
CENTER_NAME    = EARTH
REF_FRAME      = TEME
TIME_SYSTEM    = UTC
MEAN_ELEMENT_THEORY = SGP/SGP4

EPOCH          = 2025-12-24T02:56:28.569696
MEAN_MOTION    = 15.15980573
ECCENTRICITY   = .00342722
INCLINATION    = 97.5717
RA_OF_ASC_NODE = 38.2298
ARG_OF_PERICENTER = 166.9203
MEAN_ANOMALY   = 193.2927

EPHEMERIS_TYPE = 0
CLASSIFICATION_TYPE = U
NORAD_CAT_ID   = 29507
ELEMENT_SET_NO = 999
REV_AT_EPOCH   = 4859
BSTAR          = .29050868E-3
MEAN_MOTION_DOT = .559E-4
MEAN_MOTION_DDOT = 0

CCSDS_OMM_VERS = 2.0
CREATION_DATE  = 
ORIGINATOR     = 

OBJECT_NAME    = CZ-2C R/B
OBJECT_ID      = 2007-010B
CENTER_NAME    = EARTH
REF_FRAME      = TEME
TIME_SYSTEM    = UTC
MEAN_ELEMENT_THEORY = SGP/SGP4

EPOCH          = 2025-12-24T06:33:00.626688
MEAN_MOTION    = 14.20214211
ECCENTRICITY   = .00595864
INCLINATION    = 98.3975
RA_OF_ASC_NODE = 110.3434
ARG_OF_PERICENTER = 152.5893
MEAN_ANOMALY   = 207.8450

EPHEMERIS_TYPE = 0
CLASSIFICATION_TYPE = U
NORAD_CAT_ID   = 31114
ELEMENT_SET_NO = 999
REV_AT_EPOCH   = 96901
BSTAR          = .86249402E-4
MEAN_MOTION_DOT = .147E-5
MEAN_MOTION_DDOT = 0

CCSDS_OMM_VERS = 2.0
CREATION_DATE  = 
ORIGINATOR     = 

OBJECT_NAME    = COSMO-SKYMED 1
OBJECT_ID      = 2007-023A
CENTER_NAME    = EARTH
REF_FRAME      = TEME
TIME_SYSTEM    = UTC
MEAN_ELEMENT_THEORY = SGP/SGP4

EPOCH          = 2025-12-24T07:03:28.931904
MEAN_MOTION    = 14.95849840
ECCENTRICITY   = .00013371
INCLINATION    = 97.8840
RA_OF_ASC_NODE = 183.7697
ARG_OF_PERICENTER = 78.5430
MEAN_ANOMALY   = 281.5941

EPHEMERIS_TYPE = 0
CLASSIFICATION_TYPE = U
NORAD_CAT_ID   = 31598
ELEMENT_SET_NO = 999
REV_AT_EPOCH   = 363
BSTAR          = .29869861E-3
MEAN_MOTION_DOT = .3278E-4
MEAN_MOTION_DDOT = 0

CCSDS_OMM_VERS = 2.0
CREATION_DATE  = 
ORIGINATOR     = 

OBJECT_NAME    = COSMOS 2428
OBJECT_ID      = 2007-029A
CENTER_NAME    = EARTH
REF_FRAME      = TEME
TIME_SYSTEM    = UTC
MEAN_ELEMENT_THEORY = SGP/SGP4

EPOCH          = 2025-12-24T06:40:53.848992
MEAN_MOTION    = 14.12894421
ECCENTRICITY   = .00043206
INCLINATION    = 70.9367
RA_OF_ASC_NODE = 1.6529
ARG_OF_PERICENTER = 7.4712
MEAN_ANOMALY   = 352.6472

EPHEMERIS_TYPE = 0
CLASSIFICATION_TYPE = U
NORAD_CAT_ID   = 31792
ELEMENT_SET_NO = 999
REV_AT_EPOCH   = 95344
BSTAR          = .13403168E-3
MEAN_MOTION_DOT = .202E-5
MEAN_MOTION_DDOT = 0

CCSDS_OMM_VERS = 2.0
CREATION_DATE  = 
ORIGINATOR     = 

OBJECT_NAME    = SL-16 R/B
OBJECT_ID      = 2007-029B
CENTER_NAME    = EARTH
REF_FRAME      = TEME
TIME_SYSTEM    = UTC
MEAN_ELEMENT_THEORY = SGP/SGP4

EPOCH          = 2025-12-24T06:40:12.859968
MEAN_MOTION    = 14.14818260
ECCENTRICITY   = .00018789
INCLINATION    = 70.9763
RA_OF_ASC_NODE = 330.9028
ARG_OF_PERICENTER = 264.3464
MEAN_ANOMALY   = 211.7338

EPHEMERIS_TYPE = 0
CLASSIFICATION_TYPE = U
NORAD_CAT_ID   = 31793
ELEMENT_SET_NO = 999
REV_AT_EPOCH   = 95470
BSTAR          = .17419892E-3
MEAN_MOTION_DOT = .288E-5
MEAN_MOTION_DDOT = 0

CCSDS_OMM_VERS = 2.0
CREATION_DATE  = 
ORIGINATOR     = 

OBJECT_NAME    = KORONAS-FOTON
OBJECT_ID      = 2009-003A
CENTER_NAME    = EARTH
REF_FRAME      = TEME
TIME_SYSTEM    = UTC
MEAN_ELEMENT_THEORY = SGP/SGP4

EPOCH          = 2025-12-24T01:13:15.184416
MEAN_MOTION    = 15.41409947
ECCENTRICITY   = .00133424
INCLINATION    = 82.4310
RA_OF_ASC_NODE = 354.3824
ARG_OF_PERICENTER = 73.3551
MEAN_ANOMALY   = 286.9159

EPHEMERIS_TYPE = 0
CLASSIFICATION_TYPE = U
NORAD_CAT_ID   = 33504
ELEMENT_SET_NO = 999
REV_AT_EPOCH   = 93408
BSTAR          = .22009636E-3
MEAN_MOTION_DOT = .9263E-4
MEAN_MOTION_DDOT = 0

CCSDS_OMM_VERS = 2.0
CREATION_DATE  = 
ORIGINATOR     = 

OBJECT_NAME    = CZ-2C R/B
OBJECT_ID      = 2011-030B
CENTER_NAME    = EARTH
REF_FRAME      = TEME
TIME_SYSTEM    = UTC
MEAN_ELEMENT_THEORY = SGP/SGP4

EPOCH          = 2025-12-24T03:18:50.537952
MEAN_MOTION    = 14.80935145
ECCENTRICITY   = .00515034
INCLINATION    = 97.8431
RA_OF_ASC_NODE = 311.9935
ARG_OF_PERICENTER = 235.4703
MEAN_ANOMALY   = 134.6108

EPHEMERIS_TYPE = 0
CLASSIFICATION_TYPE = U
NORAD_CAT_ID   = 37731
ELEMENT_SET_NO = 999
REV_AT_EPOCH   = 77891
BSTAR          = .17405088E-3
MEAN_MOTION_DOT = .1322E-4
MEAN_MOTION_DDOT = 0

CCSDS_OMM_VERS = 2.0
CREATION_DATE  = 
ORIGINATOR     = 

OBJECT_NAME    = H-2A R/B
OBJECT_ID      = 2012-025E
CENTER_NAME    = EARTH
REF_FRAME      = TEME
TIME_SYSTEM    = UTC
MEAN_ELEMENT_THEORY = SGP/SGP4

EPOCH          = 2025-12-24T03:44:17.244960
MEAN_MOTION    = 14.94512951
ECCENTRICITY   = .00445246
INCLINATION    = 98.4611
RA_OF_ASC_NODE = 314.2669
ARG_OF_PERICENTER = 198.0836
MEAN_ANOMALY   = 161.8801

EPHEMERIS_TYPE = 0
CLASSIFICATION_TYPE = U
NORAD_CAT_ID   = 38341
ELEMENT_SET_NO = 999
REV_AT_EPOCH   = 73693
BSTAR          = .30968734E-3
MEAN_MOTION_DOT = .3341E-4
MEAN_MOTION_DDOT = 0

CCSDS_OMM_VERS = 2.0
CREATION_DATE  = 
ORIGINATOR     = 

OBJECT_NAME    = SHIJIAN-16 (SJ-16)
OBJECT_ID      = 2013-057A
CENTER_NAME    = EARTH
REF_FRAME      = TEME
TIME_SYSTEM    = UTC
MEAN_ELEMENT_THEORY = SGP/SGP4

EPOCH          = 2025-12-24T08:05:01.196160
MEAN_MOTION    = 14.92012156
ECCENTRICITY   = .00178989
INCLINATION    = 74.9736
RA_OF_ASC_NODE = 327.7107
ARG_OF_PERICENTER = 292.8583
MEAN_ANOMALY   = 67.0714

EPHEMERIS_TYPE = 0
CLASSIFICATION_TYPE = U
NORAD_CAT_ID   = 39358
ELEMENT_SET_NO = 999
REV_AT_EPOCH   = 66026
BSTAR          = .11696583E-3
MEAN_MOTION_DOT = .116E-4
MEAN_MOTION_DDOT = 0

